{"type": "FeatureCollection", "features": [ {"type": "Feature", "properties": {"norad_id": 41469, "name": "IRNSS-1G", "group": "gnss", "lat": -3.181481213827496, "lon": 59.747303230802636, "alt_km": 35774.81822187045, "timestamp": "2025-12-27T12:55:14.746799+00:00", "meta": {"OBJECT_NAME": "IRNSS-1G", "OBJECT_ID": "2016-027A", "EPOCH": "2025-12-26T21:28:52.002912", "MEAN_MOTION": 1.00272957, "ECCENTRICITY": 0.00027364, "INCLINATION": 4.7693, "RA_OF_ASC_NODE": 101.7363, "ARG_OF_PERICENTER": 325.7719, "MEAN_ANOMALY": 119.9166, "EPHEMERIS_TYPE": 0, "CLASSIFICATION_TYPE": "U", "NORAD_CAT_ID": 41469, "ELEMENT_SET_NO": 999, "REV_AT_EPOCH": 3545, "BSTAR": 0, "MEAN_MOTION_DOT": -3.13e-06, "MEAN_MOTION_DDOT": 0}, "tle": {"line1": "1 41469U 16027A   25360.89504633 -.00000313  00000+0  00000+0 0  9990", "line2": "2 41469   4.7693 101.7363 0002736 325.7719 119.9166  1.00272957 35451"}}, "geometry": {"type": "Point", "coordinates": [59.747303230802636, -3.181481213827496]}}, {"type": "Feature", "properties": {"norad_id": 41549, "name": "GSAT0211 (GALILEO 14)", "group": "gnss", "lat": 12.22167528486526, "lon": -124.8934719276532, "alt_km": 23209.09751386661, "timestamp": "2025-12-27T12:55:14.746813+00:00", "meta": {"OBJECT_NAME": "GSAT0211 (GALILEO 14)", "OBJECT_ID": "2016-030A", "EPOCH": "2025-12-25T18:06:09.128448", "MEAN_MOTION": 1.70473226, "ECCENTRICITY": 0.00039908, "INCLINATION": 55.1481, "RA_OF_ASC_NODE": 226.465, "ARG_OF_PERICENTER": 16.0221, "MEAN_ANOMALY": 344.0794, "EPHEMERIS_TYPE": 0, "CLASSIFICATION_TYPE": "U", "NORAD_CAT_ID": 41549, "ELEMENT_SET_NO": 999, "REV_AT_EPOCH": 5971, "BSTAR": 0, "MEAN_MOTION_DOT": 7e-07, "MEAN_MOTION_DDOT": 0}, "tle": {"line1": "1 41549U 16030A   25359.75427232  .00000070  00000+0  00000+0 0  9994", "line2": "2 41549  55.1481 226.4650 0003990  16.0221 344.0794  1.70473226 59712"}}, "geometry": {"type": "Point", "coordinates": [-124.8934719276532, 12.22167528486526]}}, {"type": "Feature", "properties": {"norad_id": 41550, "name": "GSAT0210 (GALILEO 13)", "group": "gnss", "lat": -29.60424552199682, "lon": 69.74171196552359, "alt_km": 23224.476964940357, "timestamp": "2025-12-27T12:55:14.746825+00:00", "meta": {"OBJECT_NAME": "GSAT0210 (GALILEO 13)", "OBJECT_ID": "2016-030B", "EPOCH": "2025-12-26T00:16:47.841312", "MEAN_MOTION": 1.70473562, "ECCENTRICITY": 5.77e-05, "INCLINATION": 55.1475, "RA_OF_ASC_NODE": 226.456, "ARG_OF_PERICENTER": 190.7717, "MEAN_ANOMALY": 169.315, "EPHEMERIS_TYPE": 0, "CLASSIFICATION_TYPE": "U", "NORAD_CAT_ID": 41550, "ELEMENT_SET_NO": 999, "REV_AT_EPOCH": 5971, "BSTAR": 0, "MEAN_MOTION_DOT": 7e-07, "MEAN_MOTION_DDOT": 0}, "tle": {"line1": "1 41550U 16030B   25360.01166483  .00000070  00000+0  00000+0 0  9995", "line2": "2 41550  55.1475 226.4560 0000577 190.7717 169.3150  1.70473562 59712"}}, "geometry": {"type": "Point", "coordinates": [69.74171196552359, -29.60424552199682]}}, {"type": "Feature", "properties": {"norad_id": 41586, "name": "BEIDOU-2 G7 (C03)", "group": "gnss", "lat": -0.8167381448238564, "lon": 40.45054710074882, "alt_km": 35768.20716158197, "timestamp": "2025-12-27T12:55:14.746837+00:00", "meta": {"OBJECT_NAME": "BEIDOU-2 G7 (C03)", "OBJECT_ID": "2016-037A", "EPOCH": "2025-12-26T15:50:23.467776", "MEAN_MOTION": 1.00267732, "ECCENTRICITY": 0.0005163, "INCLINATION": 1.7889, "RA_OF_ASC_NODE": 67.91, "ARG_OF_PERICENTER": 0.4521, "MEAN_ANOMALY": 15.0455, "EPHEMERIS_TYPE": 0, "CLASSIFICATION_TYPE": "U", "NORAD_CAT_ID": 41586, "ELEMENT_SET_NO": 999, "REV_AT_EPOCH": 516, "BSTAR": 0, "MEAN_MOTION_DOT": -3.31e-06, "MEAN_MOTION_DDOT": 0}, "tle": {"line1": "1 41586U 16037A   25360.65999384 -.00000331  00000+0  00000+0 0  9996", "line2": "2 41586   1.7889  67.9100 0005163   0.4521  15.0455  1.00267732  5169"}}, "geometry": {"type": "Point", "coordinates": [40.45054710074882, -0.8167381448238564]}}, {"type": "Feature", "properties": {"norad_id": 41589, "name": "EUTELSAT 117 WEST B (WAAS/PRN 131)", "group": "gnss", "lat": -0.0006621909071903466, "lon": 173.068556480503, "alt_km": 35785.942162224695, "timestamp": "2025-12-27T12:55:14.746849+00:00", "meta": {"OBJECT_NAME": "EUTELSAT 117 WEST B (WAAS/PRN 131)", "OBJECT_ID": "2016-038B", "EPOCH": "2025-12-27T05:35:47.867424", "MEAN_MOTION": 1.00273402, "ECCENTRICITY": 7.7e-06, "INCLINATION": 0.0096, "RA_OF_ASC_NODE": 156.0501, "ARG_OF_PERICENTER": 198.0121, "MEAN_ANOMALY": 68.8491, "EPHEMERIS_TYPE": 0, "CLASSIFICATION_TYPE": "U", "NORAD_CAT_ID": 41589, "ELEMENT_SET_NO": 999, "REV_AT_EPOCH": 3493, "BSTAR": 0, "MEAN_MOTION_DOT": 1.1e-07, "MEAN_MOTION_DDOT": 0}, "tle": {"line1": "1 41589U 16038B   25361.23319291  .00000011  00000+0  00000+0 0  9992", "line2": "2 41589   0.0096 156.0501 0000077 198.0121  68.8491  1.00273402 34932"}}, "geometry": {"type": "Point", "coordinates": [173.068556480503, -0.0006621909071903466]}}, {"type": "Feature", "properties": {"norad_id": 41859, "name": "GSAT0207 (GALILEO 15)", "group": "gnss", "lat": 36.475894505406586, "lon": 136.4929939719216, "alt_km": 23217.53343008904, "timestamp": "2025-12-27T12:55:14.746863+00:00", "meta": {"OBJECT_NAME": "GSAT0207 (GALILEO 15)", "OBJECT_ID": "2016-069A", "EPOCH": "2025-12-22T04:24:39.710016", "MEAN_MOTION": 1.70474442, "ECCENTRICITY": 0.00024396, "INCLINATION": 55.3874, "RA_OF_ASC_NODE": 105.9888, "ARG_OF_PERICENTER": 317.4324, "MEAN_ANOMALY": 42.5257, "EPHEMERIS_TYPE": 0, "CLASSIFICATION_TYPE": "U", "NORAD_CAT_ID": 41859, "ELEMENT_SET_NO": 999, "REV_AT_EPOCH": 5638, "BSTAR": 0, "MEAN_MOTION_DOT": 6e-08, "MEAN_MOTION_DDOT": 0}, "tle": {"line1": "1 41859U 16069A   25356.18379294  .00000006  00000+0  00000+0 0  9997", "line2": "2 41859  55.3874 105.9888 0002439 317.4324  42.5257  1.70474442 56382"}}, "geometry": {"type": "Point", "coordinates": [136.4929939719216, 36.475894505406586]}}, {"type": "Feature", "properties": {"norad_id": 41860, "name": "GSAT0212 (GALILEO 16)", "group": "gnss", "lat": 34.799058271659675, "lon": -102.80698912560354, "alt_km": 23220.6271732646, "timestamp": "2025-12-27T12:55:14.746874+00:00", "meta": {"OBJECT_NAME": "GSAT0212 (GALILEO 16)", "OBJECT_ID": "2016-069B", "EPOCH": "2025-12-26T03:26:41.871552", "MEAN_MOTION": 1.70474669, "ECCENTRICITY": 0.00020518, "INCLINATION": 55.3873, "RA_OF_ASC_NODE": 105.8745, "ARG_OF_PERICENTER": 19.1308, "MEAN_ANOMALY": 340.872, "EPHEMERIS_TYPE": 0, "CLASSIFICATION_TYPE": "U", "NORAD_CAT_ID": 41860, "ELEMENT_SET_NO": 999, "REV_AT_EPOCH": 5670, "BSTAR": 0, "MEAN_MOTION_DOT": 1.8e-07, "MEAN_MOTION_DDOT": 0}, "tle": {"line1": "1 41860U 16069B   25360.14354018  .00000018  00000+0  00000+0 0  9990", "line2": "2 41860  55.3873 105.8745 0002051  19.1308 340.8720  1.70474669 56708"}}, "geometry": {"type": "Point", "coordinates": [-102.80698912560354, 34.799058271659675]}}, {"type": "Feature", "properties": {"norad_id": 41861, "name": "GSAT0213 (GALILEO 17)", "group": "gnss", "lat": -55.4063816366939, "lon": 16.647272473600477, "alt_km": 23219.586923111583, "timestamp": "2025-12-27T12:55:14.746888+00:00", "meta": {"OBJECT_NAME": "GSAT0213 (GALILEO 17)", "OBJECT_ID": "2016-069C", "EPOCH": "2025-12-25T22:11:16.691136", "MEAN_MOTION": 1.70474838, "ECCENTRICITY": 0.0002917, "INCLINATION": 55.3899, "RA_OF_ASC_NODE": 105.8882, "ARG_OF_PERICENTER": 282.7957, "MEAN_ANOMALY": 77.1667, "EPHEMERIS_TYPE": 0, "CLASSIFICATION_TYPE": "U", "NORAD_CAT_ID": 41861, "ELEMENT_SET_NO": 999, "REV_AT_EPOCH": 5656, "BSTAR": 0, "MEAN_MOTION_DOT": 1.8e-07, "MEAN_MOTION_DDOT": 0}, "tle": {"line1": "1 41861U 16069C   25359.92449874  .00000018  00000+0  00000+0 0  9990", "line2": "2 41861  55.3899 105.8882 0002917 282.7957  77.1667  1.70474838 56560"}}, "geometry": {"type": "Point", "coordinates": [16.647272473600477, -55.4063816366939]}}, {"type": "Feature", "properties": {"norad_id": 41862, "name": "GSAT0214 (GALILEO 18)", "group": "gnss", "lat": -0.7200121719143382, "lon": -73.66823518888208, "alt_km": 23223.909656138545, "timestamp": "2025-12-27T12:55:14.746901+00:00", "meta": {"OBJECT_NAME": "GSAT0214 (GALILEO 18)", "OBJECT_ID": "2016-069D", "EPOCH": "2025-12-27T05:50:53.189952", "MEAN_MOTION": 1.70474774, "ECCENTRICITY": 0.00016068, "INCLINATION": 55.3883, "RA_OF_ASC_NODE": 105.8444, "ARG_OF_PERICENTER": 288.5964, "MEAN_ANOMALY": 71.3802, "EPHEMERIS_TYPE": 0, "CLASSIFICATION_TYPE": "U", "NORAD_CAT_ID": 41862, "ELEMENT_SET_NO": 999, "REV_AT_EPOCH": 5671, "BSTAR": 0, "MEAN_MOTION_DOT": 1.5e-07, "MEAN_MOTION_DDOT": 0}, "tle": {"line1": "1 41862U 16069D   25361.24367118  .00000015  00000+0  00000+0 0  9996", "line2": "2 41862  55.3883 105.8444 0001606 288.5964  71.3802  1.70474774 56717"}}, "geometry": {"type": "Point", "coordinates": [-73.66823518888208, -0.7200121719143382]}}, {"type": "Feature", "properties": {"norad_id": 42709, "name": "SES-15 (WAAS/PRN 133)", "group": "gnss", "lat": 0.0035677296470751256, "lon": 160.89647560573275, "alt_km": 35790.2794029199, "timestamp": "2025-12-27T12:55:14.746913+00:00", "meta": {"OBJECT_NAME": "SES-15 (WAAS/PRN 133)", "OBJECT_ID": "2017-026A", "EPOCH": "2025-12-27T05:32:25.689696", "MEAN_MOTION": 1.00269088, "ECCENTRICITY": 8.247e-05, "INCLINATION": 0.0202, "RA_OF_ASC_NODE": 336.2827, "ARG_OF_PERICENTER": 5.4577, "MEAN_ANOMALY": 68.1588, "EPHEMERIS_TYPE": 0, "CLASSIFICATION_TYPE": "U", "NORAD_CAT_ID": 42709, "ELEMENT_SET_NO": 999, "REV_AT_EPOCH": 570, "BSTAR": 0, "MEAN_MOTION_DOT": 8.2e-07, "MEAN_MOTION_DDOT": 0}, "tle": {"line1": "1 42709U 17026A   25361.23085289  .00000082  00000+0  00000+0 0  9990", "line2": "2 42709   0.0202 336.2827 0000824   5.4577  68.1588  1.00269088  5703"}}, "geometry": {"type": "Point", "coordinates": [160.89647560573275, 0.0035677296470751256]}}]}